0 EXACTVIEW-1
1 38709U 12039C   13282.41081284 -.00000072  00000-0 -11588-4 0  4922
2 38709 098.9463 204.6399 0011158 157.5325 202.6356 14.23575587 63184
0 EXACTVIEW-1
1 38709U 12039C   13283.60565848  .00000252  00000-0  13073-3 0  4958
2 38709 098.9460 205.8552 0011016 154.0170 206.1562 14.23577745 63353
0 EXACTVIEW-1
1 38709U 12039C   13285.99535284 -.00000058  00000-0 -52719-5 0  4973
2 38709 098.9452 208.2851 0011210 147.1197 213.0709 14.23577193 63695
0 EXACTVIEW-1
1 38709U 12039C   13287.19019778  .00000230  00000-0  12113-3 0  4985
2 38709 098.9455 209.5013 0011189 143.2026 216.9936 14.23578958 63868
0 EXACTVIEW-1
1 38709U 12039C   13288.38504284  .00000114  00000-0  70380-4 0  4991
2 38709 098.9456 210.7171 0011583 140.7851 219.4137 14.23578526 64036
0 EXACTVIEW-1
1 38709U 12039C   13289.57988869  .00000061  00000-0  46848-4 0  5004
2 38709 098.9466 211.9325 0011560 137.7785 222.4283 14.23578629 64207
0 EXACTVIEW-1
1 38709U 12039C   13290.63416411  .00000110  00000-0  68317-4 0  5024
2 38709 098.9469 213.0055 0011578 134.7779 225.4351 14.23579014 64356
0 EXACTVIEW-1
1 38709U 12039C   13292.18043406  .00000126  00000-0  75328-4 0  5034
2 38709 098.9465 214.5775 0011591 129.6658 230.5556 14.23579724 64577
0 EXACTVIEW-1
1 38709U 12039C   13293.37527762  .00000255  00000-0  13215-3 0  5048
2 38709 098.9474 215.7920 0011543 126.3655 233.8594 14.23580776 64746
0 EXACTVIEW-1
1 38709U 12039C   13294.85126245  .00000011  00000-0  25093-4 0  5052
2 38709 098.9474 217.2930 0011556 122.2619 237.9692 14.23579848 64958
0 EXACTVIEW-1
1 38709U 12039C   13296.04610546  .00000145  00000-0  83798-4 0  5062
2 38709 098.9470 218.5075 0011643 119.2266 241.0094 14.23580933 65128
